{"type": "FeatureCollection", "features": [ {"type": "Feature", "properties": {"norad_id": 44542, "name": "BEIDOU-3 M24 (C46)", "group": "beidou", "lat": 43.24391957605186, "lon": -128.78245147746634, "alt_km": 21500.371738784495, "timestamp": "2025-12-18T08:58:43.676896+00:00", "meta": {"OBJECT_NAME": "BEIDOU-3 M24 (C46)", "OBJECT_ID": "2019-061A", "EPOCH": "2025-12-16T03:22:44.327712", "MEAN_MOTION": 1.86229353, "ECCENTRICITY": 0.00096014, "INCLINATION": 54.4001, "RA_OF_ASC_NODE": 188.9011, "ARG_OF_PERICENTER": 24.8001, "MEAN_ANOMALY": 335.316, "EPHEMERIS_TYPE": 0, "CLASSIFICATION_TYPE": "U", "NORAD_CAT_ID": 44542, "ELEMENT_SET_NO": 999, "REV_AT_EPOCH": 4238, "BSTAR": 0, "MEAN_MOTION_DOT": 1.15e-06, "MEAN_MOTION_DDOT": 0}, "tle": {"line1": "1 44542U 19061A   25350.14079083  .00000115  00000+0  00000+0 0  9998", "line2": "2 44542  54.4001 188.9011 0009601  24.8001 335.3160  1.86229353 42381"}}, "geometry": {"type": "Point", "coordinates": [-128.78245147746634, 43.24391957605186]}}, {"type": "Feature", "properties": {"norad_id": 44543, "name": "BEIDOU-3 M23 (C45)", "group": "beidou", "lat": -23.93660237833713, "lon": 170.24768403499556, "alt_km": 21521.65908930153, "timestamp": "2025-12-18T08:58:43.676908+00:00", "meta": {"OBJECT_NAME": "BEIDOU-3 M23 (C45)", "OBJECT_ID": "2019-061B", "EPOCH": "2025-12-16T19:20:04.225344", "MEAN_MOTION": 1.86227685, "ECCENTRICITY": 0.00060954, "INCLINATION": 54.399, "RA_OF_ASC_NODE": 188.847, "ARG_OF_PERICENTER": 24.4715, "MEAN_ANOMALY": 334.1063, "EPHEMERIS_TYPE": 0, "CLASSIFICATION_TYPE": "U", "NORAD_CAT_ID": 44543, "ELEMENT_SET_NO": 999, "REV_AT_EPOCH": 4239, "BSTAR": 0, "MEAN_MOTION_DOT": 1.15e-06, "MEAN_MOTION_DDOT": 0}, "tle": {"line1": "1 44543U 19061B   25350.80560446  .00000115  00000+0  00000+0 0  9990", "line2": "2 44543  54.3990 188.8470 0006095  24.4715 334.1063  1.86227685 42394"}}, "geometry": {"type": "Point", "coordinates": [170.24768403499556, -23.93660237833713]}}, {"type": "Feature", "properties": {"norad_id": 44709, "name": "BEIDOU-3 IGSO-3 (C40)", "group": "beidou", "lat": 39.865013185150794, "lon": -41.63843227184067, "alt_km": 35934.96764928089, "timestamp": "2025-12-18T08:58:43.676920+00:00", "meta": {"OBJECT_NAME": "BEIDOU-3 IGSO-3 (C40)", "OBJECT_ID": "2019-073A", "EPOCH": "2025-11-20T07:11:22.740000", "MEAN_MOTION": 1.00250097, "ECCENTRICITY": 0.0044538, "INCLINATION": 55.163, "RA_OF_ASC_NODE": 283.159, "ARG_OF_PERICENTER": 191.5856, "MEAN_ANOMALY": 168.2409, "EPHEMERIS_TYPE": 0, "CLASSIFICATION_TYPE": "U", "NORAD_CAT_ID": 44709, "ELEMENT_SET_NO": 999, "REV_AT_EPOCH": 2236, "BSTAR": 0, "MEAN_MOTION_DOT": -2.06e-06, "MEAN_MOTION_DDOT": 0}, "tle": {"line1": "1 44709U 19073A   25324.29956875 -.00000206  00000+0  00000+0 0  9998", "line2": "2 44709  55.1630 283.1590 0044538 191.5856 168.2409  1.00250097 22360"}}, "geometry": {"type": "Point", "coordinates": [-41.63843227184067, 39.865013185150794]}}, {"type": "Feature", "properties": {"norad_id": 44793, "name": "BEIDOU-3 M22 (C44)", "group": "beidou", "lat": 12.316829766523128, "lon": 117.07302908222626, "alt_km": 21539.42596409523, "timestamp": "2025-12-18T08:58:43.676935+00:00", "meta": {"OBJECT_NAME": "BEIDOU-3 M22 (C44)", "OBJECT_ID": "2019-078A", "EPOCH": "2025-12-17T14:11:57.933600", "MEAN_MOTION": 1.86232151, "ECCENTRICITY": 0.00059947, "INCLINATION": 54.1037, "RA_OF_ASC_NODE": 306.2155, "ARG_OF_PERICENTER": 24.2976, "MEAN_ANOMALY": 335.7178, "EPHEMERIS_TYPE": 0, "CLASSIFICATION_TYPE": "U", "NORAD_CAT_ID": 44793, "ELEMENT_SET_NO": 999, "REV_AT_EPOCH": 4126, "BSTAR": 0, "MEAN_MOTION_DOT": -8.9e-07, "MEAN_MOTION_DDOT": 0}, "tle": {"line1": "1 44793U 19078A   25351.59164275 -.00000089  00000+0  00000+0 0  9993", "line2": "2 44793  54.1037 306.2155 0005994  24.2976 335.7178  1.86232151 41264"}}, "geometry": {"type": "Point", "coordinates": [117.07302908222626, 12.316829766523128]}}, {"type": "Feature", "properties": {"norad_id": 44794, "name": "BEIDOU-3 M21 (C43)", "group": "beidou", "lat": 50.48783595732918, "lon": 7.5675647653768765, "alt_km": 21516.734094855077, "timestamp": "2025-12-18T08:58:43.676946+00:00", "meta": {"OBJECT_NAME": "BEIDOU-3 M21 (C43)", "OBJECT_ID": "2019-078B", "EPOCH": "2025-12-16T15:43:55.727904", "MEAN_MOTION": 1.86227668, "ECCENTRICITY": 0.00041169, "INCLINATION": 54.078, "RA_OF_ASC_NODE": 306.2132, "ARG_OF_PERICENTER": 11.942, "MEAN_ANOMALY": 348.0544, "EPHEMERIS_TYPE": 0, "CLASSIFICATION_TYPE": "U", "NORAD_CAT_ID": 44794, "ELEMENT_SET_NO": 999, "REV_AT_EPOCH": 4125, "BSTAR": 0, "MEAN_MOTION_DOT": -9.5e-07, "MEAN_MOTION_DDOT": 0}, "tle": {"line1": "1 44794U 19078B   25350.65550611 -.00000095  00000+0  00000+0 0  9990", "line2": "2 44794  54.0780 306.2132 0004116  11.9420 348.0544  1.86227668 41256"}}, "geometry": {"type": "Point", "coordinates": [7.5675647653768765, 50.48783595732918]}}, {"type": "Feature", "properties": {"norad_id": 44864, "name": "BEIDOU-3 M19 (C41)", "group": "beidou", "lat": -56.36819435002044, "lon": -24.88084083313069, "alt_km": 21485.58819095062, "timestamp": "2025-12-18T08:58:43.676957+00:00", "meta": {"OBJECT_NAME": "BEIDOU-3 M19 (C41)", "OBJECT_ID": "2019-090A", "EPOCH": "2025-12-16T21:16:08.319360", "MEAN_MOTION": 1.86231655, "ECCENTRICITY": 0.00181701, "INCLINATION": 56.3969, "RA_OF_ASC_NODE": 68.8236, "ARG_OF_PERICENTER": 285.0658, "MEAN_ANOMALY": 65.3992, "EPHEMERIS_TYPE": 0, "CLASSIFICATION_TYPE": "U", "NORAD_CAT_ID": 44864, "ELEMENT_SET_NO": 999, "REV_AT_EPOCH": 4083, "BSTAR": 0, "MEAN_MOTION_DOT": -7.7e-07, "MEAN_MOTION_DDOT": 0}, "tle": {"line1": "1 44864U 19090A   25350.88620740 -.00000077  00000+0  00000+0 0  9998", "line2": "2 44864  56.3969  68.8236 0018170 285.0658  65.3992  1.86231655 40836"}}, "geometry": {"type": "Point", "coordinates": [-24.88084083313069, -56.36819435002044]}}, {"type": "Feature", "properties": {"norad_id": 44865, "name": "BEIDOU-3 M20 (C42)", "group": "beidou", "lat": -1.8590053188404025, "lon": 67.58728874303996, "alt_km": 21507.49239310962, "timestamp": "2025-12-18T08:58:43.676968+00:00", "meta": {"OBJECT_NAME": "BEIDOU-3 M20 (C42)", "OBJECT_ID": "2019-090B", "EPOCH": "2025-12-14T14:16:43.218624", "MEAN_MOTION": 1.86231589, "ECCENTRICITY": 0.00151163, "INCLINATION": 56.3967, "RA_OF_ASC_NODE": 68.9336, "ARG_OF_PERICENTER": 297.6834, "MEAN_ANOMALY": 46.2212, "EPHEMERIS_TYPE": 0, "CLASSIFICATION_TYPE": "U", "NORAD_CAT_ID": 44865, "ELEMENT_SET_NO": 999, "REV_AT_EPOCH": 4077, "BSTAR": 0, "MEAN_MOTION_DOT": -8.3e-07, "MEAN_MOTION_DDOT": 0}, "tle": {"line1": "1 44865U 19090B   25348.59494466 -.00000083  00000+0  00000+0 0  9995", "line2": "2 44865  56.3967  68.9336 0015116 297.6834  46.2212  1.86231589 40771"}}, "geometry": {"type": "Point", "coordinates": [67.58728874303996, -1.8590053188404025]}}, {"type": "Feature", "properties": {"norad_id": 45344, "name": "BEIDOU-3 G2 (C60)", "group": "beidou", "lat": -2.47102506495131, "lon": -58.060777551634956, "alt_km": 35776.51024559139, "timestamp": "2025-12-18T08:58:43.676979+00:00", "meta": {"OBJECT_NAME": "BEIDOU-3 G2 (C60)", "OBJECT_ID": "2020-017A", "EPOCH": "2025-12-17T19:56:27.389184", "MEAN_MOTION": 1.00276574, "ECCENTRICITY": 0.0002286, "INCLINATION": 2.5064, "RA_OF_ASC_NODE": 43.9767, "ARG_OF_PERICENTER": 230.3031, "MEAN_ANOMALY": 191.5542, "EPHEMERIS_TYPE": 0, "CLASSIFICATION_TYPE": "U", "NORAD_CAT_ID": 45344, "ELEMENT_SET_NO": 999, "REV_AT_EPOCH": 2144, "BSTAR": 0, "MEAN_MOTION_DOT": -1.19e-06, "MEAN_MOTION_DDOT": 0}, "tle": {"line1": "1 45344U 20017A   25351.83087256 -.00000119  00000+0  00000+0 0  9995", "line2": "2 45344   2.5064  43.9767 0002286 230.3031 191.5542  1.00276574 21445"}}, "geometry": {"type": "Point", "coordinates": [-58.060777551634956, -2.47102506495131]}}, {"type": "Feature", "properties": {"norad_id": 45807, "name": "BEIDOU-3 G3 (C61)", "group": "beidou", "lat": -2.006769111845255, "lon": -27.559751787534285, "alt_km": 35766.90566194313, "timestamp": "2025-12-18T08:58:43.676991+00:00", "meta": {"OBJECT_NAME": "BEIDOU-3 G3 (C61)", "OBJECT_ID": "2020-040A", "EPOCH": "2025-12-17T20:42:00.687744", "MEAN_MOTION": 1.00271811, "ECCENTRICITY": 0.0006402, "INCLINATION": 2.0032, "RA_OF_ASC_NODE": 66.6314, "ARG_OF_PERICENTER": 309.0943, "MEAN_ANOMALY": 132.0925, "EPHEMERIS_TYPE": 0, "CLASSIFICATION_TYPE": "U", "NORAD_CAT_ID": 45807, "ELEMENT_SET_NO": 999, "REV_AT_EPOCH": 2025, "BSTAR": 0, "MEAN_MOTION_DOT": -3.31e-06, "MEAN_MOTION_DDOT": 0}, "tle": {"line1": "1 45807U 20040A   25351.86250796 -.00000331  00000+0  00000+0 0  9995", "line2": "2 45807   2.0032  66.6314 0006402 309.0943 132.0925  1.00271811 20251"}}, "geometry": {"type": "Point", "coordinates": [-27.559751787534285, -2.006769111845255]}}, {"type": "Feature", "properties": {"norad_id": 56564, "name": "BEIDOU-3 G4 (C62)", "group": "beidou", "lat": 0.8056701724969795, "lon": 21.949632311246322, "alt_km": 35795.80618805766, "timestamp": "2025-12-18T08:58:43.677003+00:00", "meta": {"OBJECT_NAME": "BEIDOU-3 G4 (C62)", "OBJECT_ID": "2023-066A", "EPOCH": "2025-12-17T20:56:06.838368", "MEAN_MOTION": 1.00271722, "ECCENTRICITY": 0.00027648, "INCLINATION": 0.8039, "RA_OF_ASC_NODE": 302.4518, "ARG_OF_PERICENTER": 227.2526, "MEAN_ANOMALY": 31.1294, "EPHEMERIS_TYPE": 0, "CLASSIFICATION_TYPE": "U", "NORAD_CAT_ID": 56564, "ELEMENT_SET_NO": 999, "REV_AT_EPOCH": 957, "BSTAR": 0, "MEAN_MOTION_DOT": -8.5e-07, "MEAN_MOTION_DDOT": 0}, "tle": {"line1": "1 56564U 23066A   25351.87230137 -.00000085  00000+0  00000+0 0  9992", "line2": "2 56564   0.8039 302.4518 0002764 227.2526  31.1294  1.00271722  9579"}}, "geometry": {"type": "Point", "coordinates": [21.949632311246322, 0.8056701724969795]}}]}